[{"OBJECT_NAME":"CORVUS BC1","OBJECT_ID":"2017-042Y","EPOCH":"2026-03-09T22:24:00.973440","MEAN_MOTION":15.05817893,"ECCENTRICITY":0.00132832,"INCLINATION":97.3986,"RA_OF_ASC_NODE":234.9925,"ARG_OF_PERICENTER":71.1953,"MEAN_ANOMALY":289.0714,"EPHEMERIS_TYPE":0,"CLASSIFICATION_TYPE":"U","NORAD_CAT_ID":42847,"ELEMENT_SET_NO":999,"REV_AT_EPOCH":47215,"BSTAR":0.00033801202,"MEAN_MOTION_DOT":4.853e-5,"MEAN_MOTION_DDOT":0},{"OBJECT_NAME":"PEGASUS DEB","OBJECT_ID":"1994-029LA","EPOCH":"2026-03-09T18:29:08.733408","MEAN_MOTION":14.76409113,"ECCENTRICITY":0.01360091,"INCLINATION":82.0422,"RA_OF_ASC_NODE":179.0624,"ARG_OF_PERICENTER":235.64,"MEAN_ANOMALY":242.608,"EPHEMERIS_TYPE":0,"CLASSIFICATION_TYPE":"U","NORAD_CAT_ID":24227,"ELEMENT_SET_NO":999,"REV_AT_EPOCH":58708,"BSTAR":0.0004416374,"MEAN_MOTION_DOT":3.597e-5,"MEAN_MOTION_DDOT":0}]
